*******************************************************************************
JPL/HORIZONS                 140 Siwa (A874 TB)            2020-Jun-20 08:19:43
Rec #:     140 (+COV) Soln.date: 2020-May-20_00:59:43   # obs: 3678 (1877-2020)
 
IAU76/J2000 helio. ecliptic osc. elements (au, days, deg., period=Julian yrs):
 
  EPOCH=  2454869.5 ! 2009-Feb-07.00 (TDB)         Residual RMS= .33854
   EC= .2169352816026052   QR= 2.139075394107998   TP= 2455034.705266783
   OM= 107.2945840663175   W=  197.3107926980533   IN= 3.187537927527569
   A= 2.731671270397405    MA= 323.9350520411357   ADIST= 3.324267146686813
   PER= 4.51493            N= .218303857           ANGMOM= .027754169
   DAN= 3.28307            DDN= 2.15649            L= 304.5802018
   B= -.9480213            MOID= 1.12527001        TP= 2009-Jul-22.2052667830
 
Asteroid physical parameters (km, seconds, rotational period in hours):
   GM= n.a.                RAD= 54.895             ROTPER= 34.445
   H= 8.4                  G= .150                 B-V= .721
                           ALBEDO= .0676           STYP= Xc
 
ASTEROID comments: 
1: soln ref.= JPL#149, OCC=0
2: source=ORB
*******************************************************************************
 
 
*******************************************************************************
Ephemeris / WWW_USER Sat Jun 20 08:19:43 2020 Pasadena, USA      / Horizons
*******************************************************************************
Target body name: 140 Siwa (A874 TB)              {source: JPL#149}
Center body name: Solar System Barycenter (0)     {source: DE431}
Center-site name: BODY CENTER
*******************************************************************************
Start time      : A.D. 1969-Jun-28 00:00:00.0000 TDB
Stop  time      : A.D. 2071-May-04 00:00:00.0000 TDB
Step-size       : 7200 minutes
*******************************************************************************
Center geodetic : 0.00000000,0.00000000,0.0000000 {E-lon(deg),Lat(deg),Alt(km)}
Center cylindric: 0.00000000,0.00000000,0.0000000 {E-lon(deg),Dxy(km),Dz(km)}
Center radii    : (undefined)                                                  
Small perturbers: Yes                             {source: SB431-N16}
Output units    : AU-D
Output type     : GEOMETRIC cartesian states
Output format   : 2 (position and velocity)
Reference frame : Ecliptic of J2000.0
*******************************************************************************
Initial IAU76/J2000 heliocentric ecliptic osculating elements (au, days, deg.):
  EPOCH=  2454869.5 ! 2009-Feb-07.00 (TDB)         Residual RMS= .33854        
   EC= .2169352816026052   QR= 2.139075394107998   TP= 2455034.705266783       
   OM= 107.2945840663175   W=  197.3107926980533   IN= 3.187537927527569       
  Equivalent ICRF heliocentric equatorial cartesian coordinates (au, au/d):
   X=-7.815116061777301E-01  Y=-2.025333337724603E+00  Z=-7.935695478889140E-01
  VX= 1.191847196835877E-02 VY=-1.878631245371762E-03 VZ=-1.463613214835103E-03
Asteroid physical parameters (km, seconds, rotational period in hours):        
   GM= n.a.                RAD= 54.895             ROTPER= 34.445              
   H= 8.4                  G= .150                 B-V= .721                   
                           ALBEDO= .0676           STYP= Xc                    
*******************************************************************************
            JDTDB,            Calendar Date (TDB),        delta-T,                      X,                      Y,                      Z,                     VX,                     VY,                     VZ,
******************************************************************************************************************************************************************************************************************
$$SOE
2448380.500000000, A.D. 1991-May-04 00:00:00.0000,      58.185429,  6.179770572561971E-01, -2.062615111631670E+00,  1.576982653747935E-03,  1.213790233428178E-02,  4.323402750922229E-03, -7.171689710547109E-04,
2448385.500000000, A.D. 1991-May-09 00:00:00.0000,      58.185355,  6.784305668767723E-01, -2.040235691607601E+00, -2.009028136043094E-03,  1.204193614949155E-02,  4.628036452866168E-03, -7.171466456376292E-04,
2448390.500000000, A.D. 1991-May-14 00:00:00.0000,      58.185272,  7.383807987999861E-01, -2.016338359670669E+00, -5.593593191151345E-03,  1.193659869854584E-02,  4.930502597302776E-03, -7.165899905021136E-04,
2448395.500000000, A.D. 1991-May-19 00:00:00.0000,      58.185179,  7.977810260027285E-01, -1.990934927446465E+00, -9.174031500583031E-03,  1.182194524175537E-02,  5.230411686735845E-03, -7.154954493499855E-04,
2448400.500000000, A.D. 1991-May-24 00:00:00.0000,      58.185077,  8.565848509248930E-01, -1.964039152249429E+00, -1.274764712788952E-02,  1.169805232046476E-02,  5.527375190475085E-03, -7.138606133127088E-04,
2448405.500000000, A.D. 1991-May-29 00:00:00.0000,      58.184966,  9.147463120179562E-01, -1.935666728521632E+00, -1.631173501831130E-02,  1.156501779363838E-02,  5.821007038458149E-03, -7.116842478879453E-04,
2448410.500000000, A.D. 1991-Jun-03 00:00:00.0000,      58.184849,  9.722199901625921E-01, -1.905835271769124E+00, -1.986358692432589E-02,  1.142296074847868E-02,  6.110925126221921E-03, -7.089663132979346E-04,
2448415.500000000, A.D. 1991-Jun-08 00:00:00.0000,      58.184727,  1.028961114320302E+00, -1.874564294972826E+00, -2.340049741581297E-02,  1.127202128321001E-02,  6.396752817939792E-03, -7.057079779330221E-04,
2448420.500000000, A.D. 1991-Jun-13 00:00:00.0000,      58.184600,  1.084925665778064E+00, -1.841875177516100E+00, -2.691976993969879E-02,  1.111236016155223E-02,  6.678120434569725E-03, -7.019116246757217E-04,
2448425.500000000, A.D. 1991-Jun-18 00:00:00.0000,      58.184470,  1.140070480346538E+00, -1.807791126735373E+00, -3.041872289320286E-02,  1.094415833998234E-02,  6.954666714390544E-03, -6.975808500094189E-04,
2448430.500000000, A.D. 1991-Jun-23 00:00:00.0000,      58.184335,  1.194353347881724E+00, -1.772337132262860E+00, -3.389469567455944E-02,  1.076761637043440E-02,  7.226040233621050E-03, -6.927204559046996E-04,
2448435.500000000, A.D. 1991-Jun-28 00:00:00.0000,      58.184196,  1.247733108517569E+00, -1.735539913390934E+00, -3.734505467522212E-02,  1.058295368288114E-02,  7.491900775131943E-03, -6.873364345389184E-04,
2448440.500000000, A.D. 1991-Jul-03 00:00:00.0000,      58.184056,  1.300169745023977E+00, -1.697427859748159E+00, -4.076719917791389E-02,  1.039040775408737E-02,  7.751920633004987E-03, -6.814359459298184E-04,
2448445.500000000, A.D. 1991-Jul-08 00:00:00.0000,      58.183917,  1.351624470739291E+00, -1.658030965638152E+00, -4.415856712540196E-02,  1.019023316992929E-02,  8.005785840939134E-03, -6.750272886260299E-04,
2448450.500000000, A.D. 1991-Jul-13 00:00:00.0000,      58.183780,  1.402059812565096E+00, -1.617380758449336E+00, -4.751664072588588E-02,  9.982700589452158E-03,  8.253197313836657E-03, -6.681198637134610E-04,
2448455.500000000, A.D. 1991-Jul-18 00:00:00.0000,      58.183644,  1.451439688554624E+00, -1.575510221593330E+00, -5.083895186243637E-02,  9.768095619875796E-03,  8.493871893318862E-03, -6.607241324954504E-04,
2448460.500000000, A.D. 1991-Jul-23 00:00:00.0000,      58.183509,  1.499729479674651E+00, -1.532453712472985E+00, -5.412308727588194E-02,  9.546717612755778E-03,  8.727543289113779E-03, -6.528515682660197E-04,
2448465.500000000, A.D. 1991-Jul-28 00:00:00.0000,      58.183377,  1.546896095373784E+00, -1.488246876018234E+00, -5.736669349275750E-02,  9.318878392256025E-03,  8.953962909518621E-03, -6.445146026412848E-04,
2448470.500000000, A.D. 1991-Aug-02 00:00:00.0000,      58.183249,  1.592908032646173E+00, -1.442926554358488E+00, -6.056748147235432E-02,  9.084900926982224E-03,  9.172900575555313E-03, -6.357265669585473E-04,
2448475.500000000, A.D. 1991-Aug-07 00:00:00.0000,      58.183128,  1.637735428337697E+00, -1.396530693223223E+00, -6.372323094957290E-02,  8.845117957109912E-03,  9.384145115045104E-03, -6.265016292916892E-04,
2448480.500000000, A.D. 1991-Aug-12 00:00:00.0000,      58.183015,  1.681350104500897E+00, -1.349098245677062E+00, -6.683179445311649E-02,  8.599870588770811E-03,  9.587504834540484E-03, -6.168547276766306E-04,
2448485.500000000, A.D. 1991-Aug-17 00:00:00.0000,      58.182907,  1.723725606665320E+00, -1.300669073801649E+00, -6.989110098167770E-02,  8.349506867879499E-03,  9.782807868753072E-03, -6.068015001942449E-04,
2448490.500000000, A.D. 1991-Aug-22 00:00:00.0000,      58.182807,  1.764837234951506E+00, -1.251283848934366E+00, -7.289915932411993E-02,  8.094380345875268E-03,  9.969902408712383E-03, -5.963582126055344E-04,
2448495.500000000, A.D. 1991-Aug-27 00:00:00.0000,      58.182713,  1.804662068020275E+00, -1.200983951064529E+00, -7.585406101321555E-02,  7.834848650294334E-03,  1.014865681108883E-02, -5.855416842559196E-04,
2448500.500000000, A.D. 1991-Sep-01 00:00:00.0000,      58.182630,  1.843178979914596E+00, -1.149811367973853E+00, -7.875398290599624E-02,  7.571272073446906E-03,  1.031895959166215E-02, -5.743692129240282E-04,
2448505.500000000, A.D. 1991-Sep-06 00:00:00.0000,      58.182557,  1.880368649917149E+00, -1.097808594693312E+00, -8.159718938701359E-02,  7.304012192038306E-03,  1.048071930574460E-02, -5.628584992390821E-04,
2448510.500000000, A.D. 1991-Sep-11 00:00:00.0000,      58.182497,  1.916213565606594E+00, -1.045018533834351E+00, -8.438203419393116E-02,  7.033430528616057E-03,  1.063386431862416E-02, -5.510275713078673E-04,
2448515.500000000, A.D. 1991-Sep-16 00:00:00.0000,      58.182446,  1.950698019343018E+00, -9.914843973333739E-01, -8.710696186819961E-02,  6.759887262929599E-03,  1.077834247083396E-02, -5.388947102341565E-04,
